[{"OBJECT_NAME":"JILIN-1 08","OBJECT_ID":"2018-008F","EPOCH":"2026-03-09T22:37:53.184288","MEAN_MOTION":15.32205976,"ECCENTRICITY":0.00081321,"INCLINATION":97.1902,"RA_OF_ASC_NODE":90.9961,"ARG_OF_PERICENTER":76.0646,"MEAN_ANOMALY":284.15,"EPHEMERIS_TYPE":0,"CLASSIFICATION_TYPE":"U","NORAD_CAT_ID":43160,"ELEMENT_SET_NO":999,"REV_AT_EPOCH":44974,"BSTAR":0.00036689195,"MEAN_MOTION_DOT":0.00011349,"MEAN_MOTION_DDOT":0},{"OBJECT_NAME":"STARLINK-34839","OBJECT_ID":"2025-212AD","EPOCH":"2026-03-09T22:26:54.658176","MEAN_MOTION":15.3021873,"ECCENTRICITY":9.877e-5,"INCLINATION":53.1595,"RA_OF_ASC_NODE":344.3512,"ARG_OF_PERICENTER":112.3139,"MEAN_ANOMALY":247.7966,"EPHEMERIS_TYPE":0,"CLASSIFICATION_TYPE":"U","NORAD_CAT_ID":65703,"ELEMENT_SET_NO":999,"REV_AT_EPOCH":2728,"BSTAR":0.00070590751,"MEAN_MOTION_DOT":0.00020618,"MEAN_MOTION_DDOT":0}]
